STARLINK-31940          
1 59873U 24098R   26068.55527965  .00000218  00000+0  17422-4 0  9991
2 59873  43.0013 271.1418 0000520 241.0178 119.0622 15.27575351101913
TEVEL2-4                
1 63213U 25052D   26068.69417973  .00020990  00000+0  70363-3 0  9998
2 63213  97.4009 325.1237 0004733  95.3468 264.8313 15.30925813 54879
